ARIANE 5 R/B            
1 28499U 04049H   25307.90755058  .00001039  00000+0  12151-3 0  9990
2 28499  98.2511 106.8053 0085532  39.3815 321.3576 14.84891911127121
CZ-2D R/B               
1 28738U 05024B   25307.96916280  .00027792  00000+0  48571-3 0  9991
2 28738  97.3668 314.4690 0008015 112.9117 247.2982 15.50594259120240
ALOS (DAICHI)           
1 28931U 06002A   25307.81254765  .00001809  00000+0  31494-3 0  9997
2 28931  98.1025 259.5928 0001490  51.9413 308.1927 14.69288556 54998
H-2A R/B                
1 28932U 06002B   25307.79180061  .00009157  00000+0  49695-3 0  9998
2 28932  98.2294  79.4008 0055015 309.6719  49.9665 15.13492941 75379
RESURS-DK 1             
1 29228U 06021A   25307.66572093  .00003150  00000+0  18996-3 0  9991
2 29228  69.9339 202.7904 0007318 290.4596  69.5784 15.11838615 68475
CZ-4B R/B               
1 29507U 06046C   25307.94769509  .00005582  00000+0  29588-3 0  9999
2 29507  97.5799 348.1941 0033989 345.6111  14.4150 15.15294212 40993
CZ-2C R/B               
1 31114U 07010B   25307.61730826  .00000142  00000+0  84515-4 0  9991
2 31114  98.3955  62.2422 0057984 301.3557  58.1954 14.20185527961829
COSMO-SKYMED 1          
1 31598U 07023A   25307.98260440  .00003739  00000+0  34441-3 0  9998
2 31598  97.8850 133.1366 0001095  90.5107 269.6239 14.95334529996102
COSMOS 2428             
1 31792U 07029A   25307.72870578 -.00000240  00000+0 -10301-3 0  9996
2 31792  70.9363 107.7802 0001829 101.7534 258.3792 14.12891620946300
SL-16 R/B               
1 31793U 07029B   25307.63483704  .00000005  00000+0  27182-4 0  9991
2 31793  70.9743  77.3543 0002281 258.4876 112.4226 14.14803296947542
KORONAS-FOTON           
1 33504U 09003A   25307.32756018  .00013129  00000+0  32867-3 0  9990
2 33504  82.4336  46.8949 0010666 248.7956 111.2150 15.39892354926279
CZ-2C R/B               
1 37731U 11030B   25307.73695045  .00001827  00000+0  23853-3 0  9993
2 37731  97.8344 262.7270 0054252  41.5511   5.4498 14.80685918771453
