CCSDS_OMM_VERS = 2.0
CREATION_DATE  = 
ORIGINATOR     = 

OBJECT_NAME    = ARIANE 5 R/B
OBJECT_ID      = 2004-049H
CENTER_NAME    = EARTH
REF_FRAME      = TEME
TIME_SYSTEM    = UTC
MEAN_ELEMENT_THEORY = SGP/SGP4

EPOCH          = 2025-11-03T21:46:52.370112
MEAN_MOTION    = 14.84891911
ECCENTRICITY   = .00855329
INCLINATION    = 98.2511
RA_OF_ASC_NODE = 106.8053
ARG_OF_PERICENTER = 39.3815
MEAN_ANOMALY   = 321.3576

EPHEMERIS_TYPE = 0
CLASSIFICATION_TYPE = U
NORAD_CAT_ID   = 28499
ELEMENT_SET_NO = 999
REV_AT_EPOCH   = 12712
BSTAR          = .12151491E-3
MEAN_MOTION_DOT = .1039E-4
MEAN_MOTION_DDOT = 0

CCSDS_OMM_VERS = 2.0
CREATION_DATE  = 
ORIGINATOR     = 

OBJECT_NAME    = CZ-2D R/B
OBJECT_ID      = 2005-024B
CENTER_NAME    = EARTH
REF_FRAME      = TEME
TIME_SYSTEM    = UTC
MEAN_ELEMENT_THEORY = SGP/SGP4

EPOCH          = 2025-11-03T23:15:35.665920
MEAN_MOTION    = 15.50594259
ECCENTRICITY   = .00080159
INCLINATION    = 97.3668
RA_OF_ASC_NODE = 314.4690
ARG_OF_PERICENTER = 112.9117
MEAN_ANOMALY   = 247.2982

EPHEMERIS_TYPE = 0
CLASSIFICATION_TYPE = U
NORAD_CAT_ID   = 28738
ELEMENT_SET_NO = 999
REV_AT_EPOCH   = 12024
BSTAR          = .48571491E-3
MEAN_MOTION_DOT = .27792E-3
MEAN_MOTION_DDOT = 0

CCSDS_OMM_VERS = 2.0
CREATION_DATE  = 
ORIGINATOR     = 

OBJECT_NAME    = ALOS (DAICHI)
OBJECT_ID      = 2006-002A
CENTER_NAME    = EARTH
REF_FRAME      = TEME
TIME_SYSTEM    = UTC
MEAN_ELEMENT_THEORY = SGP/SGP4

EPOCH          = 2025-11-03T19:30:04.116960
MEAN_MOTION    = 14.69288556
ECCENTRICITY   = .00014909
INCLINATION    = 98.1025
RA_OF_ASC_NODE = 259.5928
ARG_OF_PERICENTER = 51.9413
MEAN_ANOMALY   = 308.1927

EPHEMERIS_TYPE = 0
CLASSIFICATION_TYPE = U
NORAD_CAT_ID   = 28931
ELEMENT_SET_NO = 999
REV_AT_EPOCH   = 5499
BSTAR          = .31494156E-3
MEAN_MOTION_DOT = .1809E-4
MEAN_MOTION_DDOT = 0

CCSDS_OMM_VERS = 2.0
CREATION_DATE  = 
ORIGINATOR     = 

OBJECT_NAME    = H-2A R/B
OBJECT_ID      = 2006-002B
CENTER_NAME    = EARTH
REF_FRAME      = TEME
TIME_SYSTEM    = UTC
MEAN_ELEMENT_THEORY = SGP/SGP4

EPOCH          = 2025-11-03T19:00:11.572704
MEAN_MOTION    = 15.13492941
ECCENTRICITY   = .0055015
INCLINATION    = 98.2294
RA_OF_ASC_NODE = 79.4008
ARG_OF_PERICENTER = 309.6719
MEAN_ANOMALY   = 49.9665

EPHEMERIS_TYPE = 0
CLASSIFICATION_TYPE = U
NORAD_CAT_ID   = 28932
ELEMENT_SET_NO = 999
REV_AT_EPOCH   = 7537
BSTAR          = .49694567E-3
MEAN_MOTION_DOT = .9157E-4
MEAN_MOTION_DDOT = 0

CCSDS_OMM_VERS = 2.0
CREATION_DATE  = 
ORIGINATOR     = 

OBJECT_NAME    = RESURS-DK 1
OBJECT_ID      = 2006-021A
CENTER_NAME    = EARTH
REF_FRAME      = TEME
TIME_SYSTEM    = UTC
MEAN_ELEMENT_THEORY = SGP/SGP4

EPOCH          = 2025-11-03T15:58:38.288352
MEAN_MOTION    = 15.11838615
ECCENTRICITY   = .00073188
INCLINATION    = 69.9339
RA_OF_ASC_NODE = 202.7904
ARG_OF_PERICENTER = 290.4596
MEAN_ANOMALY   = 69.5784

EPHEMERIS_TYPE = 0
CLASSIFICATION_TYPE = U
NORAD_CAT_ID   = 29228
ELEMENT_SET_NO = 999
REV_AT_EPOCH   = 6847
BSTAR          = .18996305E-3
MEAN_MOTION_DOT = .315E-4
MEAN_MOTION_DDOT = 0

CCSDS_OMM_VERS = 2.0
CREATION_DATE  = 
ORIGINATOR     = 

OBJECT_NAME    = CZ-4B R/B
OBJECT_ID      = 2006-046C
CENTER_NAME    = EARTH
REF_FRAME      = TEME
TIME_SYSTEM    = UTC
MEAN_ELEMENT_THEORY = SGP/SGP4

EPOCH          = 2025-11-03T22:44:40.855776
MEAN_MOTION    = 15.15294212
ECCENTRICITY   = .0033989
INCLINATION    = 97.5799
RA_OF_ASC_NODE = 348.1941
ARG_OF_PERICENTER = 345.6111
MEAN_ANOMALY   = 14.4150

EPHEMERIS_TYPE = 0
CLASSIFICATION_TYPE = U
NORAD_CAT_ID   = 29507
ELEMENT_SET_NO = 999
REV_AT_EPOCH   = 4099
BSTAR          = .29588387E-3
MEAN_MOTION_DOT = .5582E-4
MEAN_MOTION_DDOT = 0

CCSDS_OMM_VERS = 2.0
CREATION_DATE  = 
ORIGINATOR     = 

OBJECT_NAME    = CZ-2C R/B
OBJECT_ID      = 2007-010B
CENTER_NAME    = EARTH
REF_FRAME      = TEME
TIME_SYSTEM    = UTC
MEAN_ELEMENT_THEORY = SGP/SGP4

EPOCH          = 2025-11-03T14:48:55.433664
MEAN_MOTION    = 14.20185527
ECCENTRICITY   = .00579846
INCLINATION    = 98.3955
RA_OF_ASC_NODE = 62.2422
ARG_OF_PERICENTER = 301.3557
MEAN_ANOMALY   = 58.1954

EPHEMERIS_TYPE = 0
CLASSIFICATION_TYPE = U
NORAD_CAT_ID   = 31114
ELEMENT_SET_NO = 999
REV_AT_EPOCH   = 96182
BSTAR          = .84515436E-4
MEAN_MOTION_DOT = .142E-5
MEAN_MOTION_DDOT = 0

CCSDS_OMM_VERS = 2.0
CREATION_DATE  = 
ORIGINATOR     = 

OBJECT_NAME    = COSMO-SKYMED 1
OBJECT_ID      = 2007-023A
CENTER_NAME    = EARTH
REF_FRAME      = TEME
TIME_SYSTEM    = UTC
MEAN_ELEMENT_THEORY = SGP/SGP4

EPOCH          = 2025-11-03T23:34:57.020160
MEAN_MOTION    = 14.95334529
ECCENTRICITY   = .00010951
INCLINATION    = 97.8850
RA_OF_ASC_NODE = 133.1366
ARG_OF_PERICENTER = 90.5107
MEAN_ANOMALY   = 269.6239

EPHEMERIS_TYPE = 0
CLASSIFICATION_TYPE = U
NORAD_CAT_ID   = 31598
ELEMENT_SET_NO = 999
REV_AT_EPOCH   = 99610
BSTAR          = .34441084E-3
MEAN_MOTION_DOT = .3739E-4
MEAN_MOTION_DDOT = 0

CCSDS_OMM_VERS = 2.0
CREATION_DATE  = 
ORIGINATOR     = 

OBJECT_NAME    = COSMOS 2428
OBJECT_ID      = 2007-029A
CENTER_NAME    = EARTH
REF_FRAME      = TEME
TIME_SYSTEM    = UTC
MEAN_ELEMENT_THEORY = SGP/SGP4

EPOCH          = 2025-11-03T17:29:20.179392
MEAN_MOTION    = 14.12891620
ECCENTRICITY   = .00018296
INCLINATION    = 70.9363
RA_OF_ASC_NODE = 107.7802
ARG_OF_PERICENTER = 101.7534
MEAN_ANOMALY   = 258.3792

EPHEMERIS_TYPE = 0
CLASSIFICATION_TYPE = U
NORAD_CAT_ID   = 31792
ELEMENT_SET_NO = 999
REV_AT_EPOCH   = 94630
BSTAR          = -.10300657E-3
MEAN_MOTION_DOT = -.24E-5
MEAN_MOTION_DDOT = 0

CCSDS_OMM_VERS = 2.0
CREATION_DATE  = 
ORIGINATOR     = 

OBJECT_NAME    = SL-16 R/B
OBJECT_ID      = 2007-029B
CENTER_NAME    = EARTH
REF_FRAME      = TEME
TIME_SYSTEM    = UTC
MEAN_ELEMENT_THEORY = SGP/SGP4

EPOCH          = 2025-11-03T15:14:09.920256
MEAN_MOTION    = 14.14803296
ECCENTRICITY   = .00022816
INCLINATION    = 70.9743
RA_OF_ASC_NODE = 77.3543
ARG_OF_PERICENTER = 258.4876
MEAN_ANOMALY   = 112.4226

EPHEMERIS_TYPE = 0
CLASSIFICATION_TYPE = U
NORAD_CAT_ID   = 31793
ELEMENT_SET_NO = 999
REV_AT_EPOCH   = 94754
BSTAR          = .27182019E-4
MEAN_MOTION_DOT = .5E-7
MEAN_MOTION_DDOT = 0

CCSDS_OMM_VERS = 2.0
CREATION_DATE  = 
ORIGINATOR     = 

OBJECT_NAME    = KORONAS-FOTON
OBJECT_ID      = 2009-003A
CENTER_NAME    = EARTH
REF_FRAME      = TEME
TIME_SYSTEM    = UTC
MEAN_ELEMENT_THEORY = SGP/SGP4

EPOCH          = 2025-11-03T07:51:41.199552
MEAN_MOTION    = 15.39892354
ECCENTRICITY   = .00106663
INCLINATION    = 82.4336
RA_OF_ASC_NODE = 46.8949
ARG_OF_PERICENTER = 248.7956
MEAN_ANOMALY   = 111.2150

EPHEMERIS_TYPE = 0
CLASSIFICATION_TYPE = U
NORAD_CAT_ID   = 33504
ELEMENT_SET_NO = 999
REV_AT_EPOCH   = 92627
BSTAR          = .32867242E-3
MEAN_MOTION_DOT = .13129E-3
MEAN_MOTION_DDOT = 0

CCSDS_OMM_VERS = 2.0
CREATION_DATE  = 
ORIGINATOR     = 

OBJECT_NAME    = CZ-2C R/B
OBJECT_ID      = 2011-030B
CENTER_NAME    = EARTH
REF_FRAME      = TEME
TIME_SYSTEM    = UTC
MEAN_ELEMENT_THEORY = SGP/SGP4

EPOCH          = 2025-11-03T17:41:12.518880
MEAN_MOTION    = 14.80685918
ECCENTRICITY   = .0054252
INCLINATION    = 97.8344
RA_OF_ASC_NODE = 262.7270
ARG_OF_PERICENTER = 41.5511
MEAN_ANOMALY   = 5.4498

EPHEMERIS_TYPE = 0
CLASSIFICATION_TYPE = U
NORAD_CAT_ID   = 37731
ELEMENT_SET_NO = 999
REV_AT_EPOCH   = 77145
BSTAR          = .23853489E-3
MEAN_MOTION_DOT = .1827E-4
MEAN_MOTION_DDOT = 0

